NORAD_CAT_ID,OBJECT_NAME,OBJECT_TYPE,EPOCH,MEAN_MOTION,ECCENTRICITY,INCLINATION,RA_OF_ASC_NODE,ARG_OF_PERICENTER,MEAN_ANOMALY,BSTAR,MEAN_MOTION_DOT,MEAN_MOTION_DDOT,TLE_LINE0,TLE_LINE1,TLE_LINE2,SEMIMAJOR_AXIS,PERIOD,APOGEE,PERIGEE,DECAYED
53892.0,STARLINK-5046,PAYLOAD,2023-12-27 07:29:42,15.08852254,0.0001643,53.2171,330.4936,125.1044,235.0103,0.00021105,3.074e-05,0.0,0 STARLINK-5046,1 53892U 22119G   23361.31229781  .00003074  00000-0  21105-3 0  9996,2 53892  53.2171 330.4936 0001643 125.1044 235.0103 15.08852254 69983,6917.843,95.437,540.845,538.571,0.0
53892.0,STARLINK-5046,PAYLOAD,2023-12-27 21:48:11,15.08840066,0.0001414,53.2179,327.8222,101.6005,258.5146,2.2226e-05,6.6e-07,0.0,0 STARLINK-5046,1 53892U 22119G   23361.90846668  .00000066  00000-0  22226-4 0  9994,2 53892  53.2179 327.8222 0001414 101.6005 258.5146 15.08840066 70494,6917.88,95.438,540.723,538.767,0.0
53892.0,STARLINK-5046,PAYLOAD,2023-12-28 04:09:43,15.08847623,0.000134,53.2183,326.6308,104.8047,255.3093,0.00014574,2.033e-05,0.0,0 STARLINK-5046,1 53892U 22119G   23362.17342314  .00002033  00000-0  14574-3 0  9995,2 53892  53.2183 326.6308 0001340 104.8047 255.3093 15.08847623 70111,6917.857,95.437,540.649,538.795,0.0
53892.0,STARLINK-5046,PAYLOAD,2023-12-28 21:38:58,15.08841984,0.0001474,53.2185,323.3574,109.1412,250.974,5.1039e-06,-2.07e-06,0.0,0 STARLINK-5046,1 53892U 22119G   23362.90206610 -.00000207  00000-0  51039-5 0  9995,2 53892  53.2185 323.3574 0001474 109.1412 250.9740 15.08841984 70646,6917.874,95.437,540.759,538.72,0.0
53892.0,STARLINK-5046,PAYLOAD,2023-12-29 02:25:07,15.08847284,0.000165,53.2187,322.4685,104.6641,255.4534,7.6034e-05,9.22e-06,0.0,0 STARLINK-5046,1 53892U 22119G   23363.10078351  .00000922  00000-0  76034-4 0  9991,2 53892  53.2187 322.4685 0001650 104.6641 255.4534 15.08847284 70258,6917.858,95.437,540.865,538.582,0.0
53892.0,STARLINK-5046,PAYLOAD,2023-12-30 03:51:18,15.08843642,0.0001303,53.2177,317.7141,75.427,284.6866,0.00012945,1.773e-05,0.0,0 STARLINK-5046,1 53892U 22119G   23364.16062831  .00001773  00000-0  12945-3 0  9999,2 53892  53.2177 317.7141 0001303  75.4270 284.6866 15.08843642 70413,6917.869,95.437,540.636,538.833,0.0
53892.0,STARLINK-5046,PAYLOAD,2023-12-30 07:02:04,15.08848629,0.0001702,53.2177,317.1179,97.2963,262.8222,6.1056e-05,6.84e-06,0.0,0 STARLINK-5046,1 53892U 22119G   23364.29310510  .00000684  00000-0  61056-4 0  9991,2 53892  53.2177 317.1179 0001702  97.2963 262.8222 15.08848629 70854,6917.854,95.437,540.896,538.542,0.0
53892.0,STARLINK-5046,PAYLOAD,2023-12-31 06:52:51,15.0884599,0.0001458,53.2176,312.6549,113.8431,246.2714,7.9858e-05,9.83e-06,0.0,0 STARLINK-5046,1 53892U 22119G   23365.28670435  .00000983  00000-0  79858-4 0  9997,2 53892  53.2176 312.6549 0001458 113.8431 246.2714 15.08845990 70587,6917.862,95.437,540.736,538.718,0.0
53892.0,STARLINK-5046,PAYLOAD,2024-01-01 01:57:29,15.08836601,0.000145,53.218,309.0869,101.4846,258.6309,3.534e-05,2.74e-06,0.0,0 STARLINK-5046,1 53892U 22119G   24001.08159475  .00000274  00000-0  35340-4 0  9990,2 53892  53.2180 309.0869 0001450 101.4846 258.6309 15.08836601 70702,6917.891,95.438,540.759,538.753,0.0
53892.0,STARLINK-5046,PAYLOAD,2024-01-01 05:08:15,15.08839204,0.0001435,53.2183,308.4922,96.7066,263.409,5.573e-05,5.99e-06,0.0,0 STARLINK-5046,1 53892U 22119G   24001.21407342  .00000599  00000-0  55730-4 0  9999,2 53892  53.2183 308.4922 0001435  96.7066 263.4090 15.08839204 71143,6917.883,95.438,540.741,538.755,0.0
53892.0,STARLINK-5046,PAYLOAD,2024-01-02 03:23:39,15.088522,0.0001312,53.2174,304.3345,84.9116,275.2025,0.00017453,2.492e-05,0.0,0 STARLINK-5046,1 53892U 22119G   24002.14142492  .00002492  00000-0  17453-3 0  9997,2 53892  53.2174 304.3345 0001312  84.9116 275.2025 15.08852200 70864,6917.843,95.437,540.616,538.8,0.0
53892.0,STARLINK-5046,PAYLOAD,2024-01-02 04:59:02,15.08857148,0.0001435,53.2172,304.033,94.7327,265.3829,0.00027242,4.052e-05,0.0,0 STARLINK-5046,1 53892U 22119G   24002.20766279  .00004052  00000-0  27242-3 0  9990,2 53892  53.2172 304.0330 0001435  94.7327 265.3829 15.08857148 71298,6917.828,95.436,540.686,538.7,0.0
53892.0,STARLINK-5046,PAYLOAD,2024-01-03 03:14:26,15.08844924,0.0001242,53.2161,299.8724,93.4963,266.6171,0.00015137,2.122e-05,0.0,0 STARLINK-5046,1 53892U 22119G   24003.13502910  .00002122  00000-0  15137-3 0  9999,2 53892  53.2161 299.8724 0001242  93.4963 266.6171 15.08844924 71014,6917.865,95.437,540.59,538.871,0.0
53892.0,STARLINK-5046,PAYLOAD,2024-01-03 04:49:49,15.08845998,0.0001229,53.216,299.5748,95.2815,264.8318,0.00015922,2.247e-05,0.0,0 STARLINK-5046,1 53892U 22119G   24003.20126806  .00002247  00000-0  15922-3 0  9993,2 53892  53.2160 299.5748 0001229  95.2815 264.8318 15.08845998 71449,6917.862,95.437,540.577,538.877,0.0
53892.0,STARLINK-5046,PAYLOAD,2024-01-04 04:40:36,15.08850026,0.0001257,53.2162,295.1121,98.4591,261.6543,0.00033463,5.043e-05,0.0,0 STARLINK-5046,1 53892U 22119G   24004.19486703  .00005043  00000-0  33463-3 0  9994,2 53892  53.2162 295.1121 0001257  98.4591 261.6543 15.08850026 71178,6917.85,95.437,540.584,538.845,0.0
53892.0,STARLINK-5046,PAYLOAD,2024-01-05 01:20:37,15.08844722,0.0001142,53.2173,291.2457,103.2529,256.8591,0.00017513,2.501e-05,0.0,0 STARLINK-5046,1 53892U 22119G   24005.05598858  .00002501  00000-0  17513-3 0  9999,2 53892  53.2173 291.2457 0001142 103.2529 256.8591 15.08844722 71308,6917.866,95.437,540.521,538.941,0.0
53892.0,STARLINK-5046,PAYLOAD,2024-01-05 22:00:38,15.08841878,0.0001601,53.2172,287.3856,49.2636,310.8495,5.6681e-05,6.14e-06,0.0,0 STARLINK-5046,1 53892U 22119G   24005.91711491  .00000614  00000-0  56681-4 0  9997,2 53892  53.2172 287.3856 0001601  49.2636 310.8495 15.08841878 71857,6917.875,95.437,540.847,538.632,0.0
53892.0,STARLINK-5046,PAYLOAD,2024-01-06 04:22:10,15.08845634,0.0001364,53.2177,286.1914,75.1725,284.9419,8.6276e-05,1.086e-05,0.0,0 STARLINK-5046,1 53892U 22119G   24006.18207119  .00001086  00000-0  86276-4 0  9991,2 53892  53.2177 286.1914 0001364  75.1725 284.9419 15.08845634 71476,6917.863,95.437,540.672,538.785,0.0
53892.0,STARLINK-5046,PAYLOAD,2024-01-06 18:40:39,15.08840297,0.0001393,53.2175,283.514,88.7876,271.3276,-7.0439e-05,-1.409e-05,0.0,0 STARLINK-5046,1 53892U 22119G   24006.77823531 -.00001409  00000-0 -70439-4 0  9993,2 53892  53.2175 283.5140 0001393  88.7876 271.3276 15.08840297 71566,6917.879,95.438,540.708,538.781,0.0
53892.0,STARLINK-5046,PAYLOAD,2024-01-06 21:51:25,15.08840854,0.0001381,53.2166,282.9211,91.223,268.892,5.3869e-06,-2.02e-06,0.0,0 STARLINK-5046,1 53892U 22119G   24006.91071438 -.00000202  00000-0  53869-5 0  9998,2 53892  53.2166 282.9211 0001381  91.2230 268.8920 15.08840854 72004,6917.878,95.438,540.698,538.787,0.0
53892.0,STARLINK-5046,PAYLOAD,2024-01-07 04:12:58,15.08845568,0.0001488,53.2166,281.7314,84.5056,275.6105,3.3393e-05,2.44e-06,0.0,0 STARLINK-5046,1 53892U 22119G   24007.17567242  .00000244  00000-0  33393-4 0  9994,2 53892  53.2166 281.7314 0001488  84.5056 275.6105 15.08845568 72046,6917.863,95.437,540.758,538.699,0.0
53892.0,STARLINK-5046,PAYLOAD,2024-01-07 21:42:13,15.08837054,0.0001462,53.2165,278.4601,92.6301,267.4859,3.7819e-05,3.14e-06,0.0,0 STARLINK-5046,1 53892U 22119G   24007.90431727  .00000314  00000-0  37819-4 0  9998,2 53892  53.2165 278.4601 0001462  92.6301 267.4859 15.08837054 72150,6917.889,95.438,540.766,538.743,0.0
53892.0,STARLINK-5046,PAYLOAD,2024-01-07 23:17:35,15.08850898,0.0001386,53.217,278.1624,99.6687,260.4462,-8.5353e-05,-1.647e-05,0.0,0 STARLINK-5046,1 53892U 22119G   24007.97055343 -.00001647  00000-0 -85353-4 0  9999,2 53892  53.2170 278.1624 0001386  99.6687 260.4462 15.08850898 72162,6917.847,95.437,540.671,538.753,0.0
53892.0,STARLINK-5046,PAYLOAD,2024-01-08 21:33:00,15.08839931,0.0001671,53.2167,273.9986,111.6,248.517,6.368e-05,7.26e-06,0.0,0 STARLINK-5046,1 53892U 22119G   24008.89791800  .00000726  00000-0  63680-4 0  9990,2 53892  53.2167 273.9986 0001671 111.6000 248.5170 15.08839931 72307,6917.881,95.438,540.902,538.59,0.0
53892.0,STARLINK-5046,PAYLOAD,2024-01-08 23:08:23,15.08839623,0.0001473,53.217,273.7017,99.9039,260.2119,6.7662e-05,7.89e-06,0.0,0 STARLINK-5046,1 53892U 22119G   24008.96415872  .00000789  00000-0  67662-4 0  9993,2 53892  53.2170 273.7017 0001473  99.9039 260.2119 15.08839623 71899,6917.882,95.438,540.766,538.728,0.0
53892.0,STARLINK-5046,PAYLOAD,2024-01-09 21:23:47,15.08847711,0.0001551,53.2171,269.5419,116.1454,243.9698,3.446e-06,-2.33e-06,0.0,0 STARLINK-5046,1 53892U 22119G   24009.89151653 -.00000233  00000-0  34460-5 0  9996,2 53892  53.2171 269.5419 0001551 116.1454 243.9698 15.08847711 72459,6917.857,95.437,540.795,538.649,0.0
53892.0,STARLINK-5046,PAYLOAD,2024-01-10 03:45:19,15.08848884,0.0001367,53.2157,268.3479,92.2329,267.8819,0.00010764,1.426e-05,0.0,0 STARLINK-5046,1 53892U 22119G   24010.15647243  .00001426  00000-0  10764-3 0  9995,2 53892  53.2157 268.3479 0001367  92.2329 267.8819 15.08848884 72076,6917.853,95.437,540.664,538.773,0.0
53892.0,STARLINK-5046,PAYLOAD,2024-01-11 00:25:20,15.08840711,0.0001533,53.217,264.4776,82.6754,277.4412,8.5344e-05,1.071e-05,0.0,0 STARLINK-5046,1 53892U 22119G   24011.01759859  .00001071  00000-0  85344-4 0  9991,2 53892  53.2170 264.4776 0001533  82.6754 277.4412 15.08840711 72200,6917.878,95.438,540.804,538.683,0.0
53892.0,STARLINK-5046,PAYLOAD,2024-01-11 21:05:21,15.08839104,0.0001403,53.2154,260.6211,86.5525,273.5628,-7.1862e-06,-4.02e-06,0.0,0 STARLINK-5046,1 53892U 22119G   24011.87872238 -.00000402  00000-0 -71862-5 0  9992,2 53892  53.2154 260.6211 0001403  86.5525 273.5628 15.08839104 72759,6917.883,95.438,540.719,538.778,0.0
53892.0,STARLINK-5046,PAYLOAD,2024-01-12 01:51:30,15.08846728,0.0001488,53.2157,259.7277,85.2635,274.8527,0.00012196,1.654e-05,0.0,0 STARLINK-5046,1 53892U 22119G   24012.07743899  .00001654  00000-0  12196-3 0  9996,2 53892  53.2157 259.7277 0001488  85.2635 274.8527 15.08846728 72363,6917.86,95.437,540.754,538.695,0.0
